NORAD_CAT_ID,OBJECT_NAME,OBJECT_TYPE,EPOCH,MEAN_MOTION,ECCENTRICITY,INCLINATION,RA_OF_ASC_NODE,ARG_OF_PERICENTER,MEAN_ANOMALY,BSTAR,MEAN_MOTION_DOT,MEAN_MOTION_DDOT,TLE_LINE0,TLE_LINE1,TLE_LINE2,SEMIMAJOR_AXIS,PERIOD,APOGEE,PERIGEE,DECAYED
52356.0,STARLINK-3801,PAYLOAD,2023-01-30 13:53:37,15.08835115,0.0001274,53.212,250.3492,86.31,273.8038,5.7063e-05,6.2e-06,0.0,0 STARLINK-3801,1 52356U 22045AB  23030.57890234  .00000620  00000-0  57063-4 0  9993,2 52356  53.2120 250.3492 0001274  86.3100 273.8038 15.08835115 44571,6917.895,95.438,540.642,538.879,0.0
52356.0,STARLINK-3801,PAYLOAD,2023-01-30 21:50:32,15.08834877,0.0001332,53.2119,248.8624,86.1528,273.9616,0.00017744,2.537e-05,0.0,0 STARLINK-3801,1 52356U 22045AB  23030.91010321  .00002537  00000-0  17744-3 0  9992,2 52356  53.2119 248.8624 0001332  86.1528 273.9616 15.08834877 44628,6917.896,95.438,540.683,538.84,0.0
52356.0,STARLINK-3801,PAYLOAD,2023-01-30 23:25:55,15.08842523,0.0001213,53.2125,248.565,87.081,273.0321,4.5298e-05,4.33e-06,0.0,0 STARLINK-3801,1 52356U 22045AB  23030.97634127  .00000433  00000-0  45298-4 0  9993,2 52356  53.2125 248.5650 0001213  87.0810 273.0321 15.08842523 44635,6917.873,95.437,540.577,538.899,0.0
52356.0,STARLINK-3801,PAYLOAD,2023-01-31 13:44:24,15.08840259,0.0001269,53.2124,245.8885,83.7572,276.3565,0.0001542,2.167e-05,0.0,0 STARLINK-3801,1 52356U 22045AB  23031.57250167  .00002167  00000-0  15420-3 0  9997,2 52356  53.2124 245.8885 0001269  83.7572 276.3565 15.08840259 44723,6917.88,95.438,540.622,538.867,0.0
52356.0,STARLINK-3801,PAYLOAD,2023-01-31 20:05:56,15.08845528,0.0001309,53.2119,244.6991,83.271,276.8431,0.00018652,2.682e-05,0.0,0 STARLINK-3801,1 52356U 22045AB  23031.83745859  .00002682  00000-0  18652-3 0  9995,2 52356  53.2119 244.6991 0001309  83.2710 276.8431 15.08845528 44761,6917.863,95.437,540.634,538.823,0.0
52356.0,STARLINK-3801,PAYLOAD,2023-02-01 13:35:11,15.08839192,0.0001322,53.2116,241.4279,85.5374,274.5769,6.3138e-05,7.17e-06,0.0,0 STARLINK-3801,1 52356U 22045AB  23032.56610123  .00000717  00000-0  63138-4 0  9998,2 52356  53.2116 241.4279 0001322  85.5374 274.5769 15.08839192 44879,6917.883,95.438,540.662,538.833,0.0
52356.0,STARLINK-3801,PAYLOAD,2023-02-01 19:56:43,15.08841159,0.0001305,53.2115,240.2385,86.3129,273.8012,6.5429e-05,7.54e-06,0.0,0 STARLINK-3801,1 52356U 22045AB  23032.83106002  .00000754  00000-0  65429-4 0  9990,2 52356  53.2115 240.2385 0001305  86.3129 273.8012 15.08841159 44915,6917.877,95.437,540.645,538.839,0.0
52356.0,STARLINK-3801,PAYLOAD,2023-02-02 13:25:57,15.0884292,0.0001341,53.2115,236.967,88.4705,271.644,4.3604e-05,4.06e-06,0.0,0 STARLINK-3801,1 52356U 22045AB  23033.55969883  .00000406  00000-0  43604-4 0  9999,2 52356  53.2115 236.9670 0001341  88.4705 271.6440 15.08842920 45028,6917.871,95.437,540.664,538.809,0.0
52356.0,STARLINK-3801,PAYLOAD,2023-02-02 22:58:16,15.08846602,0.0001291,53.2127,235.1824,88.6598,271.4542,3.939e-05,3.39e-06,0.0,0 STARLINK-3801,1 52356U 22045AB  23033.95713552  .00000339  00000-0  39390-4 0  9995,2 52356  53.2127 235.1824 0001291  88.6598 271.4542 15.08846602 45087,6917.86,95.437,540.618,538.832,0.0
52356.0,STARLINK-3801,PAYLOAD,2023-02-03 13:16:45,15.08835878,0.0001289,53.2128,232.5057,91.2265,268.8874,4.6566e-06,-2.14e-06,0.0,0 STARLINK-3801,1 52356U 22045AB  23034.55330362 -.00000214  00000-0  46566-5 0  9993,2 52356  53.2128 232.5057 0001289  91.2265 268.8874 15.08835878 45176,6917.893,95.438,540.65,538.866,0.0
52356.0,STARLINK-3801,PAYLOAD,2023-02-04 13:07:32,15.08842114,0.0001199,53.2127,228.0445,91.4855,268.6274,5.9552e-05,6.6e-06,0.0,0 STARLINK-3801,1 52356U 22045AB  23035.54689907  .00000660  00000-0  59552-4 0  9997,2 52356  53.2127 228.0445 0001199  91.4855 268.6274 15.08842114 45323,6917.874,95.437,540.568,538.909,0.0
52356.0,STARLINK-3801,PAYLOAD,2023-02-04 21:04:27,15.08844394,0.0001224,53.2127,226.5581,85.2968,274.8164,7.9306e-05,9.75e-06,0.0,0 STARLINK-3801,1 52356U 22045AB  23035.87809667  .00000975  00000-0  79306-4 0  9998,2 52356  53.2127 226.5581 0001224  85.2968 274.8164 15.08844394 45376,6917.867,95.437,540.579,538.885,0.0
52356.0,STARLINK-3801,PAYLOAD,2023-02-05 05:01:23,15.08838978,0.0001122,53.2127,225.0712,89.3545,270.7575,1.822e-05,2e-08,0.0,0 STARLINK-3801,1 52356U 22045AB  23036.20930166  .00000002  00000-0  18220-4 0  9994,2 52356  53.2127 225.0712 0001122  89.3545 270.7575 15.08838978 45427,6917.884,95.438,540.525,538.972,0.0
52356.0,STARLINK-3801,PAYLOAD,2023-02-05 12:58:19,15.088348,0.000125,53.2127,223.584,91.7519,268.3616,5.6181e-05,6.06e-06,0.0,0 STARLINK-3801,1 52356U 22045AB  23036.54050514  .00000606  00000-0  56181-4 0  9999,2 52356  53.2127 223.5840 0001250  91.7519 268.3616 15.08834800 45476,6917.896,95.438,540.626,538.897,0.0
52356.0,STARLINK-3801,PAYLOAD,2023-02-05 20:55:15,15.08837147,0.0001233,53.2129,222.0975,87.6867,272.4267,7.7419e-05,9.44e-06,0.0,0 STARLINK-3801,1 52356U 22045AB  23036.87170448  .00000944  00000-0  77419-4 0  9996,2 52356  53.2129 222.0975 0001233  87.6867 272.4267 15.08837147 45523,6917.889,95.438,540.607,538.901,0.0
52356.0,STARLINK-3801,PAYLOAD,2023-02-06 04:52:11,15.08837837,0.0001201,53.2128,220.6106,86.9019,273.211,5.8946e-05,6.5e-06,0.0,0 STARLINK-3801,1 52356U 22045AB  23037.20290588  .00000650  00000-0  58946-4 0  9990,2 52356  53.2128 220.6106 0001201  86.9019 273.2110 15.08837837 45575,6917.887,95.438,540.583,538.921,0.0
52356.0,STARLINK-3801,PAYLOAD,2023-02-06 19:10:38,15.08846256,0.0001179,53.2132,217.934,89.5042,270.6085,8.6072e-05,1.082e-05,0.0,0 STARLINK-3801,1 52356U 22045AB  23037.79906006  .00001082  00000-0  86072-4 0  9994,2 52356  53.2132 217.9340 0001179  89.5042 270.6085 15.08846256 45665,6917.861,95.437,540.542,538.911,0.0
52356.0,STARLINK-3801,PAYLOAD,2023-02-07 04:42:58,15.08835967,0.0001211,53.2133,216.1497,91.8429,268.2702,0.00016358,2.316e-05,0.0,0 STARLINK-3801,1 52356U 22045AB  23038.19650622  .00002316  00000-0  16358-3 0  9999,2 52356  53.2133 216.1497 0001211  91.8429 268.2702 15.08835967 45725,6917.893,95.438,540.595,538.92,0.0
52356.0,STARLINK-3801,PAYLOAD,2023-02-07 11:04:30,15.08839476,0.0001189,53.2132,214.9605,93.9099,266.2029,0.00012453,1.695e-05,0.0,0 STARLINK-3801,1 52356U 22045AB  23038.46146419  .00001695  00000-0  12453-3 0  9994,2 52356  53.2132 214.9605 0001189  93.9099 266.2029 15.08839476 45764,6917.882,95.438,540.57,538.924,0.0
52356.0,STARLINK-3801,PAYLOAD,2023-02-07 19:01:25,15.08844479,0.0001244,53.213,213.4729,92.6443,267.4692,0.00012594,1.717e-05,0.0,0 STARLINK-3801,1 52356U 22045AB  23038.79266014  .00001717  00000-0  12594-3 0  9995,2 52356  53.2130 213.4729 0001244  92.6443 267.4692 15.08844479 45818,6917.867,95.437,540.592,538.871,0.0
52356.0,STARLINK-3801,PAYLOAD,2023-02-07 22:12:11,15.08849532,0.0001186,53.2129,212.8783,89.9711,270.1417,0.00019802,2.866e-05,0.0,0 STARLINK-3801,1 52356U 22045AB  23038.92513683  .00002866  00000-0  19802-3 0  9992,2 52356  53.2129 212.8783 0001186  89.9711 270.1417 15.08849532 45834,6917.851,95.437,540.537,538.896,0.0
52356.0,STARLINK-3801,PAYLOAD,2023-02-08 14:06:03,15.08838971,0.0001371,53.2126,209.9053,88.7294,271.3855,4.5055e-05,4.29e-06,0.0,0 STARLINK-3801,1 52356U 22045AB  23039.58754452  .00000429  00000-0  45055-4 0  9999,2 52356  53.2126 209.9053 0001371  88.7294 271.3855 15.08838971 45932,6917.884,95.438,540.697,538.8,0.0
52356.0,STARLINK-3801,PAYLOAD,2023-02-08 20:27:36,15.08847078,0.0001289,53.2135,208.7154,87.6811,272.4329,0.00014621,2.04e-05,0.0,0 STARLINK-3801,1 52356U 22045AB  23039.85250129  .00002040  00000-0  14621-3 0  9996,2 52356  53.2135 208.7154 0001289  87.6811 272.4329 15.08847078 45972,6917.859,95.437,540.615,538.832,0.0
52356.0,STARLINK-3801,PAYLOAD,2023-02-09 10:46:04,15.0883707,0.0001494,53.2137,206.0389,75.098,285.0178,0.00010225,1.34e-05,0.0,0 STARLINK-3801,1 52356U 22045AB  23040.44866771  .00001340  00000-0  10225-3 0  9997,2 52356  53.2137 206.0389 0001494  75.0980 285.0178 15.08837070 46065,6917.889,95.438,540.788,538.721,0.0
52356.0,STARLINK-3801,PAYLOAD,2023-02-09 20:18:23,15.08850045,0.0001409,53.2139,204.2549,70.7301,289.3844,0.00044736,6.841e-05,0.0,0 STARLINK-3801,1 52356U 22045AB  23040.84610455  .00006841  00000-0  44736-3 0  9992,2 52356  53.2139 204.2549 0001409  70.7301 289.3844 15.08850045 46121,6917.85,95.437,540.689,538.74,0.0
52356.0,STARLINK-3801,PAYLOAD,2023-02-09 21:53:46,15.08852555,0.0001392,53.2138,203.9577,74.1354,285.9791,0.00062136,9.618e-05,0.0,0 STARLINK-3801,1 52356U 22045AB  23040.91234481  .00009618  00000-0  62136-3 0  9990,2 52356  53.2138 203.9577 0001392  74.1354 285.9791 15.08852555 46136,6917.842,95.437,540.67,538.744,0.0
52356.0,STARLINK-3801,PAYLOAD,2023-02-10 15:23:01,15.08848377,0.0001232,53.2132,200.6862,68.2891,291.8232,0.00037473,5.682e-05,0.0,0 STARLINK-3801,1 52356U 22045AB  23041.64098502  .00005682  00000-0  37473-3 0  9996,2 52356  53.2132 200.6862 0001232  68.2891 291.8232 15.08848377 46249,6917.855,95.437,540.572,538.868,0.0
52356.0,STARLINK-3801,PAYLOAD,2023-02-10 20:09:10,15.08859565,0.0001176,53.2136,199.7941,69.0174,291.0944,0.00081999,0.00012793,0.0,0 STARLINK-3801,1 52356U 22045AB  23041.83970228  .00012793  00000-0  81999-3 0  9994,2 52356  53.2136 199.7941 0001176  69.0174 291.0944 15.08859565 46275,6917.821,95.436,540.499,538.872,0.0
52356.0,STARLINK-3801,PAYLOAD,2023-02-10 21:44:33,15.08865253,0.000121,53.2133,199.4961,70.0163,290.096,0.00096294,0.00015081,0.0,0 STARLINK-3801,1 52356U 22045AB  23041.90594102  .00015081  00000-0  96294-3 0  9992,2 52356  53.2133 199.4961 0001210  70.0163 290.0960 15.08865253 46289,6917.803,95.436,540.505,538.831,0.0
52356.0,STARLINK-3801,PAYLOAD,2023-02-11 21:35:20,15.08852401,0.0001578,53.2139,195.0356,71.5293,288.587,0.0008113,0.00012652,0.0,0 STARLINK-3801,1 52356U 22045AB  23042.89954772  .00012652  00000-0  81130-3 0  9998,2 52356  53.2139 195.0356 0001578  71.5293 288.5870 15.08852401 46432,6917.842,95.437,540.799,538.616,0.0
